[{"OBJECT_NAME":"METOP-B","OBJECT_ID":"2012-049A","EPOCH":"2026-04-05T19:51:05.004000","MEAN_MOTION":14.21428016,"ECCENTRICITY":0.0002491,"INCLINATION":98.6583,"RA_OF_ASC_NODE":148.7445,"ARG_OF_PERICENTER":168.4775,"MEAN_ANOMALY":191.6459,"EPHEMERIS_TYPE":0,"CLASSIFICATION_TYPE":"U","NORAD_CAT_ID":38771,"ELEMENT_SET_NO":999,"REV_AT_EPOCH":70298,"BSTAR":9.3537e-5,"MEAN_MOTION_DOT":1.61e-6,"MEAN_MOTION_DDOT":0},{"OBJECT_NAME":"SARAL","OBJECT_ID":"2013-009A","EPOCH":"2026-04-05T20:03:09.817920","MEAN_MOTION":14.32838133,"ECCENTRICITY":0.0002764,"INCLINATION":98.5564,"RA_OF_ASC_NODE":283.3136,"ARG_OF_PERICENTER":120.5738,"MEAN_ANOMALY":239.5719,"EPHEMERIS_TYPE":0,"CLASSIFICATION_TYPE":"U","NORAD_CAT_ID":39086,"ELEMENT_SET_NO":999,"REV_AT_EPOCH":68524,"BSTAR":6.8712e-5,"MEAN_MOTION_DOT":1.44e-6,"MEAN_MOTION_DDOT":0},{"OBJECT_NAME":"METOP-C","OBJECT_ID":"2018-087A","EPOCH":"2026-04-05T18:43:04.837440","MEAN_MOTION":14.2150673,"ECCENTRICITY":0.0001736,"INCLINATION":98.671,"RA_OF_ASC_NODE":156.6856,"ARG_OF_PERICENTER":63.0739,"MEAN_ANOMALY":297.0616,"EPHEMERIS_TYPE":0,"CLASSIFICATION_TYPE":"U","NORAD_CAT_ID":43689,"ELEMENT_SET_NO":999,"REV_AT_EPOCH":38454,"BSTAR":0.00010044,"MEAN_MOTION_DOT":1.76e-6,"MEAN_MOTION_DDOT":0},{"OBJECT_NAME":"OTB-3-GAZELLE","OBJECT_ID":"2022-127A","EPOCH":"2026-04-05T17:18:01.354464","MEAN_MOTION":14.42648332,"ECCENTRICITY":0.0014127,"INCLINATION":98.3931,"RA_OF_ASC_NODE":88.5381,"ARG_OF_PERICENTER":50.8004,"MEAN_ANOMALY":309.4438,"EPHEMERIS_TYPE":0,"CLASSIFICATION_TYPE":"U","NORAD_CAT_ID":54023,"ELEMENT_SET_NO":999,"REV_AT_EPOCH":18391,"BSTAR":8.3321e-5,"MEAN_MOTION_DOT":2.34e-6,"MEAN_MOTION_DDOT":0},{"OBJECT_NAME":"EOS-6 (OCEANSAT-3)","OBJECT_ID":"2022-158A","EPOCH":"2026-04-05T19:59:15.362016","MEAN_MOTION":14.4698387,"ECCENTRICITY":0.0001705,"INCLINATION":98.3484,"RA_OF_ASC_NODE":195.0061,"ARG_OF_PERICENTER":134.8018,"MEAN_ANOMALY":225.3313,"EPHEMERIS_TYPE":0,"CLASSIFICATION_TYPE":"U","NORAD_CAT_ID":54361,"ELEMENT_SET_NO":999,"REV_AT_EPOCH":17737,"BSTAR":0.00015941,"MEAN_MOTION_DOT":5.36e-6,"MEAN_MOTION_DDOT":0},{"OBJECT_NAME":"KINEIS-1B","OBJECT_ID":"2024-114A","EPOCH":"2026-04-05T19:20:13.802784","MEAN_MOTION":14.80499223,"ECCENTRICITY":0.0002034,"INCLINATION":97.9886,"RA_OF_ASC_NODE":120.3259,"ARG_OF_PERICENTER":11.3994,"MEAN_ANOMALY":348.7263,"EPHEMERIS_TYPE":0,"CLASSIFICATION_TYPE":"U","NORAD_CAT_ID":60079,"ELEMENT_SET_NO":999,"REV_AT_EPOCH":9669,"BSTAR":0.00023692,"MEAN_MOTION_DOT":1.761e-5,"MEAN_MOTION_DDOT":0},{"OBJECT_NAME":"KINEIS-1C","OBJECT_ID":"2024-114C","EPOCH":"2026-04-05T20:08:56.319936","MEAN_MOTION":14.80502143,"ECCENTRICITY":0.0002458,"INCLINATION":97.9905,"RA_OF_ASC_NODE":120.1911,"ARG_OF_PERICENTER":82.918,"MEAN_ANOMALY":277.2311,"EPHEMERIS_TYPE":0,"CLASSIFICATION_TYPE":"U","NORAD_CAT_ID":60081,"ELEMENT_SET_NO":999,"REV_AT_EPOCH":9667,"BSTAR":0.00022555,"MEAN_MOTION_DOT":1.674e-5,"MEAN_MOTION_DDOT":0},{"OBJECT_NAME":"KINEIS-1D","OBJECT_ID":"2024-114D","EPOCH":"2026-04-05T18:54:39.839904","MEAN_MOTION":14.76165096,"ECCENTRICITY":0.0002853,"INCLINATION":97.9944,"RA_OF_ASC_NODE":116.702,"ARG_OF_PERICENTER":81.3898,"MEAN_ANOMALY":278.7634,"EPHEMERIS_TYPE":0,"CLASSIFICATION_TYPE":"U","NORAD_CAT_ID":60082,"ELEMENT_SET_NO":999,"REV_AT_EPOCH":9644,"BSTAR":0.00016154,"MEAN_MOTION_DOT":1.066e-5,"MEAN_MOTION_DDOT":0},{"OBJECT_NAME":"KINEIS-1E","OBJECT_ID":"2024-114E","EPOCH":"2026-04-05T20:31:41.578176","MEAN_MOTION":14.8056319,"ECCENTRICITY":0.000252,"INCLINATION":97.9582,"RA_OF_ASC_NODE":120.2351,"ARG_OF_PERICENTER":97.091,"MEAN_ANOMALY":263.0588,"EPHEMERIS_TYPE":0,"CLASSIFICATION_TYPE":"U","NORAD_CAT_ID":60083,"ELEMENT_SET_NO":999,"REV_AT_EPOCH":9668,"BSTAR":-0.00016389,"MEAN_MOTION_DOT":-1.308e-5,"MEAN_MOTION_DDOT":0},{"OBJECT_NAME":"KINEIS-1A","OBJECT_ID":"2024-114F","EPOCH":"2026-04-05T21:21:03.797856","MEAN_MOTION":14.80493595,"ECCENTRICITY":0.0003809,"INCLINATION":97.9563,"RA_OF_ASC_NODE":120.3898,"ARG_OF_PERICENTER":28.17,"MEAN_ANOMALY":331.9718,"EPHEMERIS_TYPE":0,"CLASSIFICATION_TYPE":"U","NORAD_CAT_ID":60084,"ELEMENT_SET_NO":999,"REV_AT_EPOCH":9669,"BSTAR":-2.1805e-6,"MEAN_MOTION_DOT":-6.9e-7,"MEAN_MOTION_DDOT":0},{"OBJECT_NAME":"KINEIS-3C","OBJECT_ID":"2024-172A","EPOCH":"2026-04-05T18:16:57.675360","MEAN_MOTION":14.72325542,"ECCENTRICITY":0.000257,"INCLINATION":98.0342,"RA_OF_ASC_NODE":186.4442,"ARG_OF_PERICENTER":54.0928,"MEAN_ANOMALY":306.0517,"EPHEMERIS_TYPE":0,"CLASSIFICATION_TYPE":"U","NORAD_CAT_ID":61220,"ELEMENT_SET_NO":999,"REV_AT_EPOCH":8241,"BSTAR":0.0005048,"MEAN_MOTION_DOT":3.143e-5,"MEAN_MOTION_DDOT":0},{"OBJECT_NAME":"KINEIS-3D","OBJECT_ID":"2024-172B","EPOCH":"2026-04-05T19:45:07.180128","MEAN_MOTION":14.72331097,"ECCENTRICITY":0.0001931,"INCLINATION":98.0339,"RA_OF_ASC_NODE":186.5159,"ARG_OF_PERICENTER":64.2565,"MEAN_ANOMALY":295.8842,"EPHEMERIS_TYPE":0,"CLASSIFICATION_TYPE":"U","NORAD_CAT_ID":61221,"ELEMENT_SET_NO":999,"REV_AT_EPOCH":8270,"BSTAR":0.00045691,"MEAN_MOTION_DOT":2.841e-5,"MEAN_MOTION_DDOT":0},{"OBJECT_NAME":"KINEIS-3E","OBJECT_ID":"2024-172C","EPOCH":"2026-04-05T19:20:20.097024","MEAN_MOTION":14.72325575,"ECCENTRICITY":0.0001339,"INCLINATION":98.0345,"RA_OF_ASC_NODE":186.491,"ARG_OF_PERICENTER":91.5924,"MEAN_ANOMALY":268.5436,"EPHEMERIS_TYPE":0,"CLASSIFICATION_TYPE":"U","NORAD_CAT_ID":61222,"ELEMENT_SET_NO":999,"REV_AT_EPOCH":8270,"BSTAR":0.00025546,"MEAN_MOTION_DOT":1.566e-5,"MEAN_MOTION_DDOT":0},{"OBJECT_NAME":"KINEIS-3A","OBJECT_ID":"2024-172D","EPOCH":"2026-04-05T17:18:21.310272","MEAN_MOTION":14.72358203,"ECCENTRICITY":0.0001237,"INCLINATION":98.0331,"RA_OF_ASC_NODE":186.5009,"ARG_OF_PERICENTER":7.4712,"MEAN_ANOMALY":352.6514,"EPHEMERIS_TYPE":0,"CLASSIFICATION_TYPE":"U","NORAD_CAT_ID":61223,"ELEMENT_SET_NO":999,"REV_AT_EPOCH":8211,"BSTAR":0.00049607,"MEAN_MOTION_DOT":3.09e-5,"MEAN_MOTION_DDOT":0},{"OBJECT_NAME":"KINEIS-3B","OBJECT_ID":"2024-172E","EPOCH":"2026-04-05T18:32:05.021376","MEAN_MOTION":14.72344918,"ECCENTRICITY":0.0001276,"INCLINATION":98.0331,"RA_OF_ASC_NODE":186.5811,"ARG_OF_PERICENTER":354.6156,"MEAN_ANOMALY":5.5037,"EPHEMERIS_TYPE":0,"CLASSIFICATION_TYPE":"U","NORAD_CAT_ID":61224,"ELEMENT_SET_NO":999,"REV_AT_EPOCH":8269,"BSTAR":0.0004876,"MEAN_MOTION_DOT":3.036e-5,"MEAN_MOTION_DDOT":0},{"OBJECT_NAME":"KINEIS-5C","OBJECT_ID":"2024-219A","EPOCH":"2026-04-05T21:12:18.980928","MEAN_MOTION":14.72342704,"ECCENTRICITY":0.0004559,"INCLINATION":97.9283,"RA_OF_ASC_NODE":256.7223,"ARG_OF_PERICENTER":112.5161,"MEAN_ANOMALY":247.653,"EPHEMERIS_TYPE":0,"CLASSIFICATION_TYPE":"U","NORAD_CAT_ID":62081,"ELEMENT_SET_NO":999,"REV_AT_EPOCH":7311,"BSTAR":-2.6346e-5,"MEAN_MOTION_DOT":-2.15e-6,"MEAN_MOTION_DDOT":0},{"OBJECT_NAME":"KINEIS-5D","OBJECT_ID":"2024-219B","EPOCH":"2026-04-04T03:37:14.399904","MEAN_MOTION":14.72330144,"ECCENTRICITY":0.00050359,"INCLINATION":97.9227,"RA_OF_ASC_NODE":254.9913,"ARG_OF_PERICENTER":127.8012,"MEAN_ANOMALY":232.3652,"EPHEMERIS_TYPE":0,"CLASSIFICATION_TYPE":"U","NORAD_CAT_ID":62082,"ELEMENT_SET_NO":999,"REV_AT_EPOCH":7286,"BSTAR":5.1146212e-5,"MEAN_MOTION_DOT":2.75e-6,"MEAN_MOTION_DDOT":0}]
