METOP-B                 
1 38771U 12049A   26095.82714125  .00000161  00000+0  93537-4 0  9992
2 38771  98.6583 148.7445 0002491 168.4775 191.6459 14.21428016702984
SARAL                   
1 39086U 13009A   26095.83553030  .00000144  00000+0  68712-4 0  9994
2 39086  98.5564 283.3136 0002764 120.5738 239.5719 14.32838133685243
METOP-C                 
1 43689U 18087A   26095.77991710  .00000176  00000+0  10044-3 0  9992
2 43689  98.6710 156.6856 0001736  63.0739 297.0616 14.21506730384549
OTB-3-GAZELLE           
1 54023U 22127A   26095.72084901  .00000234  00000+0  83321-4 0  9990
2 54023  98.3931  88.5381 0014127  50.8004 309.4438 14.42648332183914
EOS-6 (OCEANSAT-3)      
1 54361U 22158A   26095.83281669  .00000536  00000+0  15941-3 0  9998
2 54361  98.3484 195.0061 0001705 134.8018 225.3313 14.46983870177371
KINEIS-1B               
1 60079U 24114A   26095.80571531  .00001761  00000+0  23692-3 0  9995
2 60079  97.9886 120.3259 0002034  11.3994 348.7263 14.80499223 96694
KINEIS-1C               
1 60081U 24114C   26095.83954074  .00001674  00000+0  22555-3 0  9998
2 60081  97.9905 120.1911 0002458  82.9180 277.2311 14.80502143 96677
KINEIS-1D               
1 60082U 24114D   26095.78796111  .00001066  00000+0  16154-3 0  9992
2 60082  97.9944 116.7020 0002853  81.3898 278.7634 14.76165096 96447
KINEIS-1E               
1 60083U 24114E   26095.85534234 -.00001308  00000+0 -16389-3 0  9998
2 60083  97.9582 120.2351 0002520  97.0910 263.0588 14.80563190 96686
KINEIS-1A               
1 60084U 24114F   26095.88962729 -.00000069  00000+0 -21805-5 0  9990
2 60084  97.9563 120.3898 0003809  28.1700 331.9718 14.80493595 96698
KINEIS-3C               
1 61220U 24172A   26095.76177865  .00003143  00000+0  50480-3 0  9996
2 61220  98.0342 186.4442 0002570  54.0928 306.0517 14.72325542 82412
KINEIS-3D               
1 61221U 24172B   26095.82299977  .00002841  00000+0  45691-3 0  9995
2 61221  98.0339 186.5159 0001931  64.2565 295.8842 14.72331097 82705
KINEIS-3E               
1 61222U 24172C   26095.80578816  .00001566  00000+0  25546-3 0  9996
2 61222  98.0345 186.4910 0001339  91.5924 268.5436 14.72325575 82701
KINEIS-3A               
1 61223U 24172D   26095.72107998  .00003090  00000+0  49607-3 0  9995
2 61223  98.0331 186.5009 0001237   7.4712 352.6514 14.72358203 82116
KINEIS-3B               
1 61224U 24172E   26095.77228034  .00003036  00000+0  48760-3 0  9995
2 61224  98.0331 186.5811 0001276 354.6156   5.5037 14.72344918 82695
KINEIS-5C               
1 62081U 24219A   26095.88355302 -.00000215  00000+0 -26346-4 0  9995
2 62081  97.9283 256.7223 0004559 112.5161 247.6530 14.72342704 73117
KINEIS-5D               
1 62082U 24219B   26094.15086111  .00000275  00000+0  51146-4 0  9994
2 62082  97.9227 254.9913 0005035 127.8012 232.3652 14.72330144 72868
